CZ-2C R/B               
1 54039U 22132E   26052.47430348  .00044066  00000+0  53264-3 0  9991
2 54039  97.2965  55.3191 0020172 143.8618 216.4007 15.60343936187846
GSLV R/B                
1 54149U 22138AN  26053.07590806  .00003355  00000+0  29071-3 0  9997
2 54149  87.3880 171.5866 0020733 202.7355 157.2961 14.96645755181599
XRISM                   
1 57800U 23137A   26053.12077604  .00005079  00000+0  28859-3 0  9994
2 57800  31.0034  24.3444 0008319 243.8357 116.1426 15.11288827135437
ACS3                    
1 59588U 24077B   26053.08486074  .00018015  00000+0  14740-1 0  9999
2 59588  97.2158 357.7062 0050123 121.3991 239.2089 13.88891427 92034
SZ-21 MODULE            
1 66515U 25246C   26053.08571975  .00030145  00000+0  27430-3 0  9991
2 66515  41.4753 299.3233 0001593 293.5720  66.4954 15.67269924 15625
