CCSDS_OMM_VERS = 2.0
CREATION_DATE  = 
ORIGINATOR     = 

OBJECT_NAME    = CZ-2C R/B
OBJECT_ID      = 2022-132E
CENTER_NAME    = EARTH
REF_FRAME      = TEME
TIME_SYSTEM    = UTC
MEAN_ELEMENT_THEORY = SGP/SGP4

EPOCH          = 2026-02-21T11:22:59.820672
MEAN_MOTION    = 15.60343936
ECCENTRICITY   = .00201722
INCLINATION    = 97.2965
RA_OF_ASC_NODE = 55.3191
ARG_OF_PERICENTER = 143.8618
MEAN_ANOMALY   = 216.4007

EPHEMERIS_TYPE = 0
CLASSIFICATION_TYPE = U
NORAD_CAT_ID   = 54039
ELEMENT_SET_NO = 999
REV_AT_EPOCH   = 18784
BSTAR          = .53264031E-3
MEAN_MOTION_DOT = .44066E-3
MEAN_MOTION_DDOT = 0

CCSDS_OMM_VERS = 2.0
CREATION_DATE  = 
ORIGINATOR     = 

OBJECT_NAME    = GSLV R/B
OBJECT_ID      = 2022-138AN
CENTER_NAME    = EARTH
REF_FRAME      = TEME
TIME_SYSTEM    = UTC
MEAN_ELEMENT_THEORY = SGP/SGP4

EPOCH          = 2026-02-22T01:49:18.456384
MEAN_MOTION    = 14.96645755
ECCENTRICITY   = .0020733
INCLINATION    = 87.3880
RA_OF_ASC_NODE = 171.5866
ARG_OF_PERICENTER = 202.7355
MEAN_ANOMALY   = 157.2961

EPHEMERIS_TYPE = 0
CLASSIFICATION_TYPE = U
NORAD_CAT_ID   = 54149
ELEMENT_SET_NO = 999
REV_AT_EPOCH   = 18159
BSTAR          = .29071E-3
MEAN_MOTION_DOT = .3355E-4
MEAN_MOTION_DDOT = 0

CCSDS_OMM_VERS = 2.0
CREATION_DATE  = 
ORIGINATOR     = 

OBJECT_NAME    = XRISM
OBJECT_ID      = 2023-137A
CENTER_NAME    = EARTH
REF_FRAME      = TEME
TIME_SYSTEM    = UTC
MEAN_ELEMENT_THEORY = SGP/SGP4

EPOCH          = 2026-02-22T02:53:55.049856
MEAN_MOTION    = 15.11288827
ECCENTRICITY   = .0008319
INCLINATION    = 31.0034
RA_OF_ASC_NODE = 24.3444
ARG_OF_PERICENTER = 243.8357
MEAN_ANOMALY   = 116.1426

EPHEMERIS_TYPE = 0
CLASSIFICATION_TYPE = U
NORAD_CAT_ID   = 57800
ELEMENT_SET_NO = 999
REV_AT_EPOCH   = 13543
BSTAR          = .28859E-3
MEAN_MOTION_DOT = .5079E-4
MEAN_MOTION_DDOT = 0

CCSDS_OMM_VERS = 2.0
CREATION_DATE  = 
ORIGINATOR     = 

OBJECT_NAME    = ACS3
OBJECT_ID      = 2024-077B
CENTER_NAME    = EARTH
REF_FRAME      = TEME
TIME_SYSTEM    = UTC
MEAN_ELEMENT_THEORY = SGP/SGP4

EPOCH          = 2026-02-22T02:02:11.967936
MEAN_MOTION    = 13.88891427
ECCENTRICITY   = .0050123
INCLINATION    = 97.2158
RA_OF_ASC_NODE = 357.7062
ARG_OF_PERICENTER = 121.3991
MEAN_ANOMALY   = 239.2089

EPHEMERIS_TYPE = 0
CLASSIFICATION_TYPE = U
NORAD_CAT_ID   = 59588
ELEMENT_SET_NO = 999
REV_AT_EPOCH   = 9203
BSTAR          = .1474E-1
MEAN_MOTION_DOT = .18015E-3
MEAN_MOTION_DDOT = 0

CCSDS_OMM_VERS = 2.0
CREATION_DATE  = 
ORIGINATOR     = 

OBJECT_NAME    = SZ-21 MODULE
OBJECT_ID      = 2025-246C
CENTER_NAME    = EARTH
REF_FRAME      = TEME
TIME_SYSTEM    = UTC
MEAN_ELEMENT_THEORY = SGP/SGP4

EPOCH          = 2026-02-22T02:03:26.186400
MEAN_MOTION    = 15.67269924
ECCENTRICITY   = .0001593
INCLINATION    = 41.4753
RA_OF_ASC_NODE = 299.3233
ARG_OF_PERICENTER = 293.5720
MEAN_ANOMALY   = 66.4954

EPHEMERIS_TYPE = 0
CLASSIFICATION_TYPE = U
NORAD_CAT_ID   = 66515
ELEMENT_SET_NO = 999
REV_AT_EPOCH   = 1562
BSTAR          = .2743E-3
MEAN_MOTION_DOT = .30145E-3
MEAN_MOTION_DDOT = 0

